start=new Date('2022-10-12T00:00:00.000Z').valueOf();
sats=[{"EPOCH":"2022-10-11T22:00:00.999936","RCS_SIZE":"LARGE","COUNTRY_CODE":"US","EPHEMERIS_TYPE":"0","TLE_LINE2":"2 53245  53.2166  32.1200 0001844  39.9764 313.4063 15.08832529  1304","INCLINATION":"53.2166","OBJECT_NAME":"STARLINK-4124","RA_OF_ASC_NODE":"32.1200","BSTAR":"-0.00031707000000","PERIOD":"95.438","REF_FRAME":"TEME","CENTER_NAME":"EARTH","CLASSIFICATION_TYPE":"U","ARG_OF_PERICENTER":"39.9764","ELEMENT_SET_NO":"999","NORAD_CAT_ID":"53245","OBJECT_TYPE":"PAYLOAD","MEAN_ANOMALY":"313.4063","OBJECT_ID":"2022-086D","REV_AT_EPOCH":"130","MEAN_MOTION":"15.08832529","ECCENTRICITY":"0.00018440","SITE":"AFETR","FILE":"3604484","APOAPSIS":"541.044","LAUNCH_DATE":"2022-07-24","PERIAPSIS":"538.493","MEAN_ELEMENT_THEORY":"SGP4","SEMIMAJOR_AXIS":"6917.903","MEAN_MOTION_DDOT":"0.0000000000000","TIME_SYSTEM":"UTC","MEAN_MOTION_DOT":"-0.00005330","TLE_LINE1":"1 53245U 22086D   22284.91667824 -.00005330  00000-0 -31707-3 0  9992","GP_ID":"214825740","DECAY_DATE":null},{"EPOCH":"2022-10-11T22:00:00.999936","RCS_SIZE":"LARGE","RA_OF_ASC_NODE":"32.1175","OBJECT_NAME":"STARLINK-4131","PERIOD":"95.438","BSTAR":"-0.00022488000000","COUNTRY_CODE":"US","INCLINATION":"53.2172","TLE_LINE2":"2 53246  53.2172  32.1175 0002060  28.0371 345.3720 15.08838374  1305","EPHEMERIS_TYPE":"0","ARG_OF_PERICENTER":"28.0371","NORAD_CAT_ID":"53246","ELEMENT_SET_NO":"999","CLASSIFICATION_TYPE":"U","REF_FRAME":"TEME","CENTER_NAME":"EARTH","MEAN_ANOMALY":"345.3720","OBJECT_TYPE":"PAYLOAD","FILE":"3604484","LAUNCH_DATE":"2022-07-24","APOAPSIS":"541.175","PERIAPSIS":"538.325","MEAN_MOTION":"15.08838374","OBJECT_ID":"2022-086E","REV_AT_EPOCH":"130","SITE":"AFETR","ECCENTRICITY":"0.00020600","MEAN_MOTION_DDOT":"0.0000000000000","MEAN_ELEMENT_THEORY":"SGP4","SEMIMAJOR_AXIS":"6917.885","GP_ID":"214824716","TLE_LINE1":"1 53246U 22086E   22284.91667824 -.00003865  00000-0 -22488-3 0  9990","DECAY_DATE":null,"TIME_SYSTEM":"UTC","MEAN_MOTION_DOT":"-0.00003865"},{"SITE":"AFETR","ECCENTRICITY":"0.00019190","REV_AT_EPOCH":"130","MEAN_MOTION":"15.08829791","OBJECT_ID":"2022-086F","PERIAPSIS":"538.449","LAUNCH_DATE":"2022-07-24","APOAPSIS":"541.104","FILE":"3604484","SEMIMAJOR_AXIS":"6917.912","MEAN_ELEMENT_THEORY":"SGP4","MEAN_MOTION_DDOT":"0.0000000000000","TIME_SYSTEM":"UTC","MEAN_MOTION_DOT":"-0.00008425","DECAY_DATE":null,"TLE_LINE1":"1 53247U 22086F   22284.91667824 -.00008425  00000-0 -51196-3 0  9996","GP_ID":"214825303","RCS_SIZE":"LARGE","EPOCH":"2022-10-11T22:00:00.999936","INCLINATION":"53.2190","TLE_LINE2":"2 53247  53.2190  27.1317 0001919  48.4415 307.2411 15.08829791  1302","EPHEMERIS_TYPE":"0","COUNTRY_CODE":"US","PERIOD":"95.438","BSTAR":"-0.00051196000000","RA_OF_ASC_NODE":"27.1317","OBJECT_NAME":"STARLINK-4061","CLASSIFICATION_TYPE":"U","REF_FRAME":"TEME","CENTER_NAME":"EARTH","NORAD_CAT_ID":"53247","ELEMENT_SET_NO":"999","ARG_OF_PERICENTER":"48.4415","OBJECT_TYPE":"PAYLOAD","MEAN_ANOMALY":"307.2411"},{"MEAN_MOTION_DOT":"-0.00003521","TIME_SYSTEM":"UTC","GP_ID":"214825911","TLE_LINE1":"1 53248U 22086G   22284.91667824 -.00003521  00000-0 -20322-3 0  9996","DECAY_DATE":null,"MEAN_ELEMENT_THEORY":"SGP4","SEMIMAJOR_AXIS":"6917.886","MEAN_MOTION_DDOT":"0.0000000000000","MEAN_MOTION":"15.08838152","OBJECT_ID":"2022-086G","REV_AT_EPOCH":"130","ECCENTRICITY":"0.00015110","SITE":"AFETR","FILE":"3604484","LAUNCH_DATE":"2022-07-24","PERIAPSIS":"538.706","APOAPSIS":"540.796","OBJECT_TYPE":"PAYLOAD","MEAN_ANOMALY":"322.0994","CENTER_NAME":"EARTH","REF_FRAME":"TEME","CLASSIFICATION_TYPE":"U","ARG_OF_PERICENTER":"53.6100","ELEMENT_SET_NO":"999","NORAD_CAT_ID":"53248","COUNTRY_CODE":"US","EPHEMERIS_TYPE":"0","TLE_LINE2":"2 53248  53.2173  27.1173 0001511  53.6100 322.0994 15.08838152  1303","INCLINATION":"53.2173","OBJECT_NAME":"STARLINK-4135","RA_OF_ASC_NODE":"27.1173","BSTAR":"-0.00020322000000","PERIOD":"95.438","EPOCH":"2022-10-11T22:00:00.999936","RCS_SIZE":"LARGE"},{"OBJECT_TYPE":"PAYLOAD","MEAN_ANOMALY":"268.3159","CLASSIFICATION_TYPE":"U","CENTER_NAME":"EARTH","REF_FRAME":"TEME","ARG_OF_PERICENTER":"40.0842","NORAD_CAT_ID":"53249","ELEMENT_SET_NO":"999","COUNTRY_CODE":"US","INCLINATION":"53.2173","EPHEMERIS_TYPE":"0","TLE_LINE2":"2 53249  53.2173  22.1200 0001893  40.0842 268.3159 15.08852596  1309","RA_OF_ASC_NODE":"22.1200","OBJECT_NAME":"STARLINK-4128","PERIOD":"95.437","BSTAR":"-0.00160300000000","EPOCH":"2022-10-11T22:00:00.999936","RCS_SIZE":"LARGE","TIME_SYSTEM":"UTC","MEAN_MOTION_DOT":"-0.00025718","TLE_LINE1":"1 53249U 22086H   22284.91667824 -.00025718  00000-0 -16030-2 0  9999","GP_ID":"214825476","DECAY_DATE":null,"MEAN_ELEMENT_THEORY":"SGP4","SEMIMAJOR_AXIS":"6917.842","MEAN_MOTION_DDOT":"0.0000000000000","OBJECT_ID":"2022-086H","MEAN_MOTION":"15.08852596","REV_AT_EPOCH":"130","SITE":"AFETR","ECCENTRICITY":"0.00018930","FILE":"3604484","APOAPSIS":"541.016","LAUNCH_DATE":"2022-07-24","PERIAPSIS":"538.397"},{"EPOCH":"2022-10-11T22:00:00.999936","RCS_SIZE":"LARGE","COUNTRY_CODE":"US","INCLINATION":"53.2184","TLE_LINE2":"2 53250  53.2184  22.1320 0002203  37.5594 250.8185 15.08819731  1306","EPHEMERIS_TYPE":"0","RA_OF_ASC_NODE":"22.1320","OBJECT_NAME":"STARLINK-4059","PERIOD":"95.439","BSTAR":"-0.00053184000000","CLASSIFICATION_TYPE":"U","REF_FRAME":"TEME","CENTER_NAME":"EARTH","ARG_OF_PERICENTER":"37.5594","NORAD_CAT_ID":"53250","ELEMENT_SET_NO":"999","OBJECT_TYPE":"PAYLOAD","MEAN_ANOMALY":"250.8185","REV_AT_EPOCH":"130","MEAN_MOTION":"15.08819731","OBJECT_ID":"2022-086J","SITE":"AFETR","ECCENTRICITY":"0.00022030","FILE":"3604484","APOAPSIS":"541.331","LAUNCH_DATE":"2022-07-24","PERIAPSIS":"538.283","MEAN_ELEMENT_THEORY":"SGP4","SEMIMAJOR_AXIS":"6917.942","MEAN_MOTION_DDOT":"0.0000000000000","TIME_SYSTEM":"UTC","MEAN_MOTION_DOT":"-0.00008738","TLE_LINE1":"1 53250U 22086J   22284.91667824 -.00008738  00000-0 -53184-3 0  9996","GP_ID":"214825133","DECAY_DATE":null},{"OBJECT_NAME":"STARLINK-4129","RA_OF_ASC_NODE":"22.1172","BSTAR":"-0.00022987000000","PERIOD":"95.438","COUNTRY_CODE":"US","TLE_LINE2":"2 53251  53.2173  22.1172 0002021  32.0793 316.3300 15.08838321  1302","EPHEMERIS_TYPE":"0","INCLINATION":"53.2173","EPOCH":"2022-10-11T22:00:00.999936","RCS_SIZE":"LARGE","MEAN_ANOMALY":"316.3300","OBJECT_TYPE":"PAYLOAD","ARG_OF_PERICENTER":"32.0793","ELEMENT_SET_NO":"999","NORAD_CAT_ID":"53251","REF_FRAME":"TEME","CENTER_NAME":"EARTH","CLASSIFICATION_TYPE":"U","FILE":"3604484","LAUNCH_DATE":"2022-07-24","PERIAPSIS":"538.352","APOAPSIS":"541.149","MEAN_MOTION":"15.08838321","OBJECT_ID":"2022-086K","REV_AT_EPOCH":"130","ECCENTRICITY":"0.00020210","SITE":"AFETR","TLE_LINE1":"1 53251U 22086K   22284.91667824 -.00003945  00000-0 -22987-3 0  9999","GP_ID":"214824888","DECAY_DATE":null,"TIME_SYSTEM":"UTC","MEAN_MOTION_DOT":"-0.00003945","MEAN_MOTION_DDOT":"0.0000000000000","MEAN_ELEMENT_THEORY":"SGP4","SEMIMAJOR_AXIS":"6917.886"},{"MEAN_ANOMALY":"266.9803","OBJECT_TYPE":"PAYLOAD","ARG_OF_PERICENTER":"36.2290","ELEMENT_SET_NO":"999","NORAD_CAT_ID":"53252","CENTER_NAME":"EARTH","REF_FRAME":"TEME","CLASSIFICATION_TYPE":"U","OBJECT_NAME":"STARLINK-4132","RA_OF_ASC_NODE":"22.1173","BSTAR":"-0.00022447000000","PERIOD":"95.438","COUNTRY_CODE":"US","EPHEMERIS_TYPE":"0","TLE_LINE2":"2 53252  53.2173  22.1173 0002050  36.2290 266.9803 15.08838327  1308","INCLINATION":"53.2173","EPOCH":"2022-10-11T22:00:00.999936","RCS_SIZE":"LARGE","GP_ID":"214825647","TLE_LINE1":"1 53252U 22086L   22284.91667824 -.00003859  00000-0 -22447-3 0  9995","DECAY_DATE":null,"TIME_SYSTEM":"UTC","MEAN_MOTION_DOT":"-0.00003859","MEAN_MOTION_DDOT":"0.0000000000000","MEAN_ELEMENT_THEORY":"SGP4","SEMIMAJOR_AXIS":"6917.886","FILE":"3604484","APOAPSIS":"541.169","LAUNCH_DATE":"2022-07-24","PERIAPSIS":"538.332","OBJECT_ID":"2022-086L","MEAN_MOTION":"15.08838327","REV_AT_EPOCH":"130","ECCENTRICITY":"0.00020500","SITE":"AFETR"},{"BSTAR":"-0.00021202000000","PERIOD":"95.438","OBJECT_NAME":"STARLINK-4133","RA_OF_ASC_NODE":"22.1172","EPHEMERIS_TYPE":"0","TLE_LINE2":"2 53253  53.2174  22.1172 0002142  33.9078 334.5016 15.08838189  1303","INCLINATION":"53.2174","COUNTRY_CODE":"US","RCS_SIZE":"LARGE","EPOCH":"2022-10-11T22:00:00.999936","MEAN_ANOMALY":"334.5016","OBJECT_TYPE":"PAYLOAD","ELEMENT_SET_NO":"999","NORAD_CAT_ID":"53253","ARG_OF_PERICENTER":"33.9078","CENTER_NAME":"EARTH","REF_FRAME":"TEME","CLASSIFICATION_TYPE":"U","LAUNCH_DATE":"2022-07-24","APOAPSIS":"541.233","PERIAPSIS":"538.269","FILE":"3604484","ECCENTRICITY":"0.00021420","SITE":"AFETR","OBJECT_ID":"2022-086M","REV_AT_EPOCH":"130","MEAN_MOTION":"15.08838189","DECAY_DATE":null,"TLE_LINE1":"1 53253U 22086M   22284.91667824 -.00003661  00000-0 -21202-3 0  9995","GP_ID":"214825741","TIME_SYSTEM":"UTC","MEAN_MOTION_DOT":"-0.00003661","MEAN_MOTION_DDOT":"0.0000000000000","SEMIMAJOR_AXIS":"6917.886","MEAN_ELEMENT_THEORY":"SGP4"},{"APOAPSIS":"541.308","LAUNCH_DATE":"2022-07-24","PERIAPSIS":"538.192","FILE":"3604484","SITE":"AFETR","ECCENTRICITY":"0.00022520","REV_AT_EPOCH":"130","MEAN_MOTION":"15.08838390","OBJECT_ID":"2022-086N","MEAN_MOTION_DDOT":"0.0000000000000","SEMIMAJOR_AXIS":"6917.885","MEAN_ELEMENT_THEORY":"SGP4","DECAY_DATE":null,"TLE_LINE1":"1 53254U 22086N   22284.91667824 -.00004058  00000-0 -23699-3 0  9999","GP_ID":"214824717","TIME_SYSTEM":"UTC","MEAN_MOTION_DOT":"-0.00004058","RCS_SIZE":"LARGE","EPOCH":"2022-10-11T22:00:00.999936","PERIOD":"95.438","BSTAR":"-0.00023699000000","RA_OF_ASC_NODE":"22.1173","OBJECT_NAME":"STARLINK-4134","INCLINATION":"53.2173","TLE_LINE2":"2 53254  53.2173  22.1173 0002252  27.4092 301.0001 15.08838390  1307","EPHEMERIS_TYPE":"0","COUNTRY_CODE":"US","NORAD_CAT_ID":"53254","ELEMENT_SET_NO":"999","ARG_OF_PERICENTER":"27.4092","CLASSIFICATION_TYPE":"U","REF_FRAME":"TEME","CENTER_NAME":"EARTH","MEAN_ANOMALY":"301.0001","OBJECT_TYPE":"PAYLOAD"}];
